;FLAVOR:Marlin
;TIME:46
;Filament used: 0.0442706m
;Layer height: 0.3
;MINX:100.559
;MINY:100.8
;MINZ:0.3
;MAXX:119.44
;MAXY:119.2
;MAXZ:0.3
;Generated with Cura_SteamEngine 5.2.1
M140 S60
M105
M190 S60
M104 S200
M105
M109 S200
M82 ;absolute extrusion mode

G92 E0
G92 E0
G1 F2400 E-1.25
;LAYER_COUNT:1
;LAYER:0
M107
;MESH:Part Studio 1 - Part 3 (1).stl
G0 F1500 X100.56 Y100.8 Z0.2
;TYPE:SKIN
G1 F2400 E0
G1 F1500 X119.44 Y100.8 E0.94193
G0 X119.44 Y101.2 Z0.20434782608695654
G1 X100.56 Y101.2 E1.88385
G0 X100.56 Y101.6 Z0.20869565217391306
G1 X119.44 Y101.6 E2.82578
G0 X119.44 Y102 Z0.21304347826086958
G1 X100.56 Y102 E3.76771
G0 X100.56 Y102.4 Z0.2173913043478261
G1 X119.44 Y102.4 E4.70964
G0 X119.44 Y102.8 Z0.22173913043478263
G1 X100.56 Y102.8 E5.65156
G0 X100.56 Y103.2 Z0.22608695652173916
G1 X119.44 Y103.2 E6.59349
G0 X119.44 Y103.6 Z0.23043478260869568
G1 X100.56 Y103.6 E7.53542
G0 X100.56 Y104 Z0.2347826086956522
G1 X119.44 Y104 E8.47734
G0 X119.44 Y104.4 Z0.23913043478260873
G1 X100.56 Y104.4 E9.41927
G0 X100.56 Y104.8 Z0.24347826086956526
G1 X119.44 Y104.8 E10.3612
G0 X119.44 Y105.2 Z0.24782608695652178
G1 X100.56 Y105.2 E11.30312
G0 X100.56 Y105.6 Z0.2521739130434783
G1 X119.44 Y105.6 E12.24505
G0 X119.44 Y106 Z0.2565217391304348
G1 X100.56 Y106 E13.18698
G0 X100.56 Y106.4 Z0.2608695652173913
G1 X119.44 Y106.4 E14.12891
G0 X119.44 Y106.8 Z0.2652173913043478
G1 X100.56 Y106.8 E15.07083
G0 X100.56 Y107.2 Z0.2695652173913043
G1 X119.44 Y107.2 E16.01276
G0 X119.44 Y107.6 Z0.2739130434782608
G1 X100.56 Y107.6 E16.95469
G0 X100.56 Y108 Z0.2782608695652173
G1 X119.44 Y108 E17.89661
G0 X119.44 Y108.4 Z0.2826086956521738
G1 X100.56 Y108.4 E18.83854
G0 X100.56 Y108.8 Z0.2869565217391303
G1 X119.44 Y108.8 E19.78047
G0 X119.44 Y109.2 Z0.2913043478260868
G1 X100.56 Y109.2 E20.72239
G0 X100.56 Y109.6 Z0.29565217391304327
G1 X119.44 Y109.6 E21.66432
G0 X119.44 Y110 Z0.29999999999999977
G1 X100.56 Y110 E22.60625
G0 X100.56 Y110.4 Z0.30434782608695626
G1 X119.44 Y110.4 E23.54818
G0 X119.44 Y110.8 Z0.30869565217391276
G1 X100.56 Y110.8 E24.4901
G0 X100.56 Y111.2 Z0.31304347826086926
G1 X119.44 Y111.2 E25.43203
G0 X119.44 Y111.6 Z0.31739130434782575
G1 X100.56 Y111.6 E26.37396
G0 X100.56 Y112 Z0.32173913043478225
G1 X119.44 Y112 E27.31588
G0 X119.44 Y112.4 Z0.32608695652173875
G1 X100.56 Y112.4 E28.25781
G0 X100.56 Y112.8 Z0.33043478260869524
G1 X119.44 Y112.8 E29.19974
G0 X119.44 Y113.2 Z0.33478260869565174
G1 X100.56 Y113.2 E30.14166
G0 X100.56 Y113.6 Z0.33913043478260824
G1 X119.44 Y113.6 E31.08359
G0 X119.44 Y114 Z0.34347826086956473
G1 X100.56 Y114 E32.02552
G0 X100.56 Y114.4 Z0.34782608695652123
G1 X119.44 Y114.4 E32.96745
G0 X119.44 Y114.8 Z0.3521739130434777
G1 X100.56 Y114.8 E33.90937
G0 X100.56 Y115.2 Z0.3565217391304342
G1 X119.44 Y115.2 E34.8513
G0 X119.44 Y115.6 Z0.3608695652173907
G1 X100.56 Y115.6 E35.79323
G0 X100.56 Y116 Z0.3652173913043472
G1 X119.44 Y116 E36.73515
G0 X119.44 Y116.4 Z0.3695652173913037
G1 X100.56 Y116.4 E37.67708
G0 X100.56 Y116.8 Z0.3739130434782602
G1 X119.44 Y116.8 E38.61901
G0 X119.44 Y117.2 Z0.3782608695652167
G1 X100.56 Y117.2 E39.56094
G0 X100.56 Y117.6 Z0.3826086956521732
G1 X119.44 Y117.6 E40.50286
G0 X119.44 Y118 Z0.3869565217391297
G1 X100.56 Y118 E41.44479
G0 X100.56 Y118.4 Z0.3913043478260862
G1 X119.44 Y118.4 E42.38672
G0 X119.44 Y118.8 Z0.3956521739130427
G1 X100.56 Y118.8 E43.32864
G0 X100.559 Y119.2 Z0.3999999999999992
G1 X119.439 Y119.2 E44.27057
G0 X118.2 Y118.318
;TIME_ELAPSED:46.387543
G1 F2400 E43.02057
M140 S0

M82 ;absolute extrusion mode
M104 S0
;End of Gcode
;SETTING_3 {"global_quality": "[general]\\nversion = 4\\nname = Extra Fast #3\\n
;SETTING_3 definition = SV01\\n\\n[metadata]\\ntype = quality_changes\\nquality_
;SETTING_3 type = verydraft\\nsetting_version = 20\\n\\n[values]\\nadhesion_type
;SETTING_3  = none\\nmagic_spiralize = True\\nmaterial_bed_temperature = 60.0\\n
;SETTING_3 \\n", "extruder_quality": ["[general]\\nversion = 4\\nname = Extra Fa
;SETTING_3 st #3\\ndefinition = SV01\\n\\n[metadata]\\ntype = quality_changes\\n
;SETTING_3 quality_type = verydraft\\nsetting_version = 20\\nposition = 0\\n\\n[
;SETTING_3 values]\\nbrim_width = 6.6\\ninfill_pattern = gyroid\\nskin_angles = 
;SETTING_3 [90 ]\\nskin_outline_count = 0\\nwall_line_count = 0\\n\\n"]}
